{
  "norad_id": 49413,
  "name": "STARLINK-3157",
  "history": [
    {
      "epoch": "2026-03-28T20:29:02.818176",
      "apogee_km": 540.7000857613411,
      "perigee_km": 538.792548615459,
      "latitude_deg": -53.19237547794257,
      "longitude_deg": -76.76353535987437,
      "semi_major_axis_km": 6917.8833171884,
      "eccentricity": 0.00013787,
      "inclination_deg": 53.2166,
      "raan_deg": 133.1011,
      "arg_perigee_deg": 87.9124,
      "mean_anomaly_deg": 272.2026,
      "mean_motion_rev_day": 15.08839042
    }
  ]
}