{"fetched_at":"2026-03-29T16:36:15Z","count":15609,"tles":[{"name":"STARLINK-3157","line1":"1 49413U 21104F   26087.85350484  .00000047  00000+0  21055-4 0  9996","line2":"2 49413  53.2166 133.1011 0001378  87.9124 272.2026 15.08839042241666","category":"Starlink"}]}